STARLINK-37787          
1 69692U 26145R   26195.52025877  .00205666  00000+0  13414-2 0  9998
2 69692  97.2826  42.3732 0001360 105.5090 254.6325 15.75282746  3073
STARLINK-37962          
1 69693U 26145S   26195.51849500  .00174823  00000+0  11464-2 0  9998
2 69693  97.2835  42.3763 0001147  91.5434 268.5963 15.75245270  3070
STARLINK-37953          
1 69694U 26145T   26195.52131746  .00120039  00000+0  79257-3 0  9991
2 69694  97.2832  42.3724 0001177  93.6617 266.4783 15.75243504  3079
STARLINK-37926          
1 69695U 26145U   26195.52061075  .00094607  00000+0  62652-3 0  9991
2 69695  97.2811  42.3719 0002086  97.1417 263.0086 15.75249030  3077
STARLINK-37959          
1 69696U 26145V   26195.51955338  .00126655  00000+0  83627-3 0  9999
2 69696  97.2832  42.3739 0001184 118.2894 241.8491 15.75223688  3070
STARLINK-37976          
1 69697U 26145W   26195.58025955  .00135870  00000+0  89605-3 0  9991
2 69697  97.2841  42.4451 0001377  85.4088 274.7335 15.75224321  3085
STARLINK-37912          
1 69698U 26145X   26195.51567133  .00145836  00000+0  95981-3 0  9991
2 69698  97.2836  42.3805 0001273  90.4264 269.7147 15.75243072  3077
STARLINK-37974          
1 69699U 26145Y   26195.57849573  .00079670  00000+0  52965-3 0  9996
2 69699  97.2845  42.4478 0001080  77.7143 282.4243 15.75207413  3084
STARLINK-37955          
1 69700U 26145Z   26195.83013582  .00083485  00000+0  55501-3 0  9999
2 69700  97.2837  42.7181 0001545  95.6328 264.5113 15.75194931  3124
STARLINK-38055          
1 69704U 26147A   26195.66281455  .00065043  00000+0  33728-3 0  9999
2 69704  97.2823 232.0178 0001362 117.1022 243.0385 15.80848495  3772
STARLINK-37898          
1 69705U 26147B   26195.66199098  .00072061  00000+0  37330-3 0  9992
2 69705  97.2827 232.0190 0001395  55.6653 304.4747 15.80847598  3770
STARLINK-37970          
1 69706U 26147C   26195.66123881  .00079646  00000+0  41202-3 0  9999
2 69706  97.2826 232.0202 0000801 107.5887 252.5469 15.80855875  3772
STARLINK-37975          
1 69707U 26147D   26195.66048642  .00222871  00000+0  11354-2 0  9995
2 69707  97.2829 232.0212 0001181 139.4088 220.7268 15.80803920  3774
STARLINK-37972          
1 69708U 26147E   26195.65973747  .00202491  00000+0  10342-2 0  9990
2 69708  97.2829 232.0218 0001243 117.0207 243.1188 15.80801965  3772
STARLINK-37963          
1 69709U 26147F   26195.65898532  .00195584  00000+0  99955-3 0  9991
2 69709  97.2827 232.0220 0000945  85.6930 274.4446 15.80806094  3777
STARLINK-37969          
1 69710U 26147G   26195.65823389  .00206625  00000+0  10542-2 0  9994
2 69710  97.2829 232.0243 0001205 124.7622 235.3760 15.80813697  3771
STARLINK-37956          
1 69711U 26147H   26195.65748360  .00061627  00000+0  31968-3 0  9997
2 69711  97.2831 232.0255 0001378 111.1102 249.0313 15.80851636  3773
STARLINK-38043          
1 69712U 26147J   26195.65672797  .00026108  00000+0  13640-3 0  9990
2 69712  97.2833 232.0267 0000945 159.3166 200.8141 15.80853721  3773
STARLINK-38020          
1 69713U 26147K   26195.65598027  .00168770  00000+0  86546-3 0  9991
2 69713  97.2827 232.0273 0001346 100.7821 259.3599 15.80801646  3773
STARLINK-38059          
1 69714U 26147L   26195.65522144  .00230809  00000+0  11751-2 0  9997
2 69714  97.2837 232.0297 0001792 189.3646 170.7589 15.80798242  3776
STARLINK-38061          
1 69715U 26147M   26195.65447976  .00099773  00000+0  51620-3 0  9990
2 69715  97.2836 232.0302 0001729  53.9737 306.1691 15.80793663  3771
STARLINK-38060          
1 69716U 26147N   26195.65372591  .00213011  00000+0  10862-2 0  9996
2 69716  97.2828 232.0301 0001238  61.0222 299.1170 15.80809600  3778
STARLINK-38040          
1 69717U 26147P   26195.65297470  .00160726  00000+0  82484-3 0  9993
2 69717  97.2821 232.0319 0001232  72.9872 287.1531 15.80806351  3775
STARLINK-37989          
1 69718U 26147Q   26195.65221852  .00156422  00000+0  80355-3 0  9998
2 69718  97.2833 232.0332 0000498 130.4893 229.6419 15.80796037  3775
STARLINK-38039          
1 69719U 26147R   26195.58816970  .00172690  00000+0  88467-3 0  9999
2 69719  97.2849 231.9673 0001689  92.0878 268.0584 15.80813276  3762
STARLINK-38003          
1 69720U 26147S   26195.65072226  .00206420  00000+0  10541-2 0  9993
2 69720  97.2825 232.0340 0001884  63.0318 297.1142 15.80794434  3773
STARLINK-38014          
1 69721U 26147T   26195.64997030  .00168906  00000+0  86579-3 0  9993
2 69721  97.2829 232.0351 0001626  61.9873 298.1560 15.80810319  3773
STARLINK-37915          
1 69722U 26147U   26195.64921824  .00148738  00000+0  76443-3 0  9992
2 69722  97.2822 232.0369 0001625  69.3380 290.8062 15.80805896  3770
STARLINK-38007          
1 69723U 26147V   26195.65161265  .00159545  00000+0  81926-3 0  9999
2 69723  97.2830 232.0323 0001604  76.8230 283.3217 15.80796264  3771
STARLINK-38008          
1 69724U 26147W   26195.64771302  .00186324  00000+0  95380-3 0  9992
2 69724  97.2827 232.0386 0001107  98.3501 261.7892 15.80794238  3773
